QIANFAN-60              
1 62790U 25016F   25354.92706514  .00000052  00000+0  61907-4 0  9994
2 62790  88.9762 102.2301 0014291 323.5018  36.5158 13.50985703 48331
QIANFAN-61              
1 62791U 25016G   25354.88580923  .00000145  00000+0  20547-3 0  9991
2 62791  88.9829 102.4028 0013257 323.2592  36.7649 13.50982549 48342
QIANFAN-62              
1 62792U 25016H   25354.88994296  .00000158  00000+0  22566-3 0  9991
2 62792  88.9776 102.2664 0014652 323.2676  36.7470 13.50979122 48335
QIANFAN-63              
1 62793U 25016J   25354.91461578  .00000143  00000+0  20345-3 0  9995
2 62793  88.9783 102.2159 0014812 328.9886  31.0389 13.50985846 48377
QIANFAN-64              
1 62794U 25016K   25354.88168851  .00000148  00000+0  21100-3 0  9995
2 62794  88.9769 102.1923 0012621 321.9425  38.0834 13.50980874 48365
QIANFAN-65              
1 62795U 25016L   25354.87756091  .00000146  00000+0  20742-3 0  9993
2 62795  88.9766 102.2184 0012487 323.9958  36.0351 13.50986580 48346
QIANFAN-66              
1 62796U 25016M   25354.90638501  .00000141  00000+0  20013-3 0  9999
2 62796  88.9785 102.1872 0013523 318.5853  41.4272 13.50979384 48398
QIANFAN-67              
1 62797U 25016N   25354.91061210  .00000149  00000+0  21204-3 0  9999
2 62797  88.9775 102.2116 0013613 326.2255  33.8027 13.50983574 48368
QIANFAN-68              
1 62798U 25016P   25354.90229274  .00000145  00000+0  20634-3 0  9997
2 62798  88.9779 102.2579 0013630 324.3095  35.7143 13.50985979 48345
QIANFAN-69              
1 62799U 25016Q   25354.91876859  .00000135  00000+0  19099-3 0  9998
2 62799  88.9758 102.1238 0014396 325.2717  34.7493 13.50988674 48381
QIANFAN-70              
1 62800U 25016R   25354.93524928  .00000148  00000+0  21010-3 0  9990
2 62800  88.9779 102.2624 0013851 314.6839  45.3183 13.50979640 48342
QIANFAN-71              
1 62801U 25016S   25354.85699066  .00000100  00000+0  13696-3 0  9997
2 62801  88.9772 102.2493 0014375 329.3225  30.7084 13.50979122 48336
QIANFAN-72              
1 62802U 25016T   25354.87344859  .00000144  00000+0  20440-3 0  9990
2 62802  88.9763 102.2604 0017795 336.2645  23.7684 13.50986692 48320
QIANFAN-73              
1 63159U 25046A   25354.90059865  .00000105  00000+0  14332-3 0  9993
2 63159  88.9768 319.1778 0016856  98.0678 262.2387 13.50978934 48519
QIANFAN-74              
1 63160U 25046B   25354.88398344  .00000083  00000+0  10995-3 0  9996
2 63160  88.9769 319.0682 0002024  75.1589 284.9786 13.50975673 48571
QIANFAN-75              
1 63161U 25046C   25354.87126958  .00000129  00000+0  18020-3 0  9994
2 63161  88.9770 319.3033 0017954 100.8633 259.4540 13.50980912 48444
QIANFAN-76              
1 63162U 25046D   25354.86791814  .00000147  00000+0  20809-3 0  9991
2 63162  88.9768 319.2843 0015511 100.9872 259.3025 13.50981397 48459
QIANFAN-77              
1 63163U 25046E   25354.92812658  .00000278  00000+0  19256-3 0  9998
2 63163  88.9771 317.2179 0016892  58.5210 301.7615 13.96093704 49590
QIANFAN-78              
1 63164U 25046F   25354.90880079  .00000108  00000+0  14868-3 0  9995
2 63164  88.9768 319.1439 0016834 103.1382 257.1649 13.50979271 48536
QIANFAN-79              
1 63165U 25046G   25354.93745233  .00000122  00000+0  17016-3 0  9995
2 63165  88.9772 319.2488 0016561 101.4831 258.8181 13.50980964 48488
QIANFAN-80              
1 63166U 25046H   25354.87991862  .00000118  00000+0  16374-3 0  9991
2 63166  88.9770 318.9614 0015464 105.1990 255.0872 13.50978885 48634
QIANFAN-81              
1 63167U 25046J   25354.93222183  .00000139  00000+0  19575-3 0  9991
2 63167  88.9770 319.0239 0016630  94.9921 265.3129 13.51004772 48595
QIANFAN-82              
1 63168U 25046K   25354.89237047  .00000125  00000+0  17456-3 0  9993
2 63168  88.9770 319.0720 0014681 101.7244 258.5555 13.50977925 48573
QIANFAN-83              
1 63169U 25046L   25354.92718887  .00000142  00000+0  16792-3 0  9995
2 63169  88.9770 318.8287 0016156  88.6148 271.6860 13.61976935 48717
QIANFAN-84              
1 63170U 25046M   25354.92011006  .00000093  00000+0  12476-3 0  9996
2 63170  88.9769 319.2017 0017683  99.0740 261.2413 13.50988454 48506
QIANFAN-85              
1 63171U 25046N   25354.91692928  .00000129  00000+0  18065-3 0  9994
2 63171  88.9769 319.0738 0015045 100.6370 259.6477 13.50978748 48576
QIANFAN-86              
1 63172U 25046P   25354.92525809  .00000124  00000+0  17276-3 0  9997
2 63172  88.9771 318.9353 0012873 103.7835 256.4750 13.50978439 48652
QIANFAN-87              
1 63173U 25046Q   25354.89660038  .00000118  00000+0  16428-3 0  9999
2 63173  88.9767 319.0496 0013589 100.0413 260.2273 13.50976122 48587
QIANFAN-88              
1 63174U 25046R   25354.91289156  .00000111  00000+0  15351-3 0  9998
2 63174  88.9770 319.0027 0013872 107.0153 253.2520 13.50982719 48615
QIANFAN-89              
1 63175U 25046S   25354.87572541  .00000112  00000+0  15422-3 0  9997
2 63175  88.9770 319.1956 0018358  99.5827 260.7400 13.50978547 48507
QIANFAN-90              
1 63176U 25046T   25354.90446087  .00000107  00000+0  14734-3 0  9996
2 63176  88.9770 319.1649 0015311  97.5355 262.7536 13.50978931 48528
QIANFAN-91              
1 66033U 25233A   25354.89299773  .00000050  00000+0  43230-4 0  9996
2 66033  88.9948  61.2986 0016929  21.2968 338.8894 13.68746614  9090
QIANFAN-92              
1 66034U 25233B   25354.72634574  .00000047  00000+0  39259-4 0  9993
2 66034  88.9961  61.2956 0013929  20.5156 339.6562 13.70240606  9073
QIANFAN-93              
1 66035U 25233C   25354.89814122  .00000049  00000+0  42082-4 0  9991
2 66035  88.9955  61.2999 0015308  24.3379 335.8503 13.69664298  9096
QIANFAN-94              
1 66036U 25233D   25354.91110126  .00000056  00000+0  46748-4 0  9999
2 66036  88.9954  61.2843 0015561  19.5580 340.6178 13.73406695  9109
QIANFAN-95              
1 66037U 25233E   25354.89578730  .00000103  00000+0  48970-4 0  9998
2 66037  88.9954  61.1340 0014465  20.3183 339.8574 14.11271129  9185
QIANFAN-96              
1 66038U 25233F   25354.92376220  .00000050  00000+0  42540-4 0  9991
2 66038  88.9953  61.3037 0016273  24.0654 336.1265 13.70166681  9090
QIANFAN-97              
1 66039U 25233G   25354.58324705  .00000049  00000+0  39597-4 0  9991
2 66039  88.9955  61.3269 0016450  27.2088 332.9933 13.71762309  9055
QIANFAN-98              
1 66040U 25233H   25354.47148128  .00000061  00000+0  38441-4 0  9995
2 66040  88.9939  61.2385 0018902  20.6104 339.5827 13.90134869  9080
QIANFAN-99              
1 66041U 25233J   25354.52129190  .00000057  00000+0  50462-4 0  9992
2 66041  88.9954  61.3361 0016158  23.8289 336.3618 13.69952815  9047
QIANFAN-100             
1 66042U 25233K   25354.89991627  .00000061  00000+0  46029-4 0  9994
2 66042  88.9956  61.2271 0016180  26.4623 333.7367 13.80123109  9136
QIANFAN-101             
1 66043U 25233L   25354.87234451  .00000244  00000+0  94642-4 0  9995
2 66043  88.9954  61.0935 0015091  17.6048 342.5665 14.26680577  9208
QIANFAN-102             
1 66044U 25233M   25354.29688652  .00000053  00000+0  42518-4 0  9991
2 66044  88.9955  61.3411 0015334  26.2248 333.9690 13.74953714  9020
QIANFAN-103             
1 66045U 25233N   25353.94817708  .00000047  00000+0  37662-4 0  9996
2 66045  88.9972  61.3973 0015121  24.3222 335.8652 13.71838931  8969
QIANFAN-104             
1 66046U 25233P   25354.52822270  .00000052  00000+0  41583-4 0  9995
2 66046  88.9894  61.2984 0015580  24.9937 335.1978 13.73701065  9056
QIANFAN-105             
1 66047U 25233Q   25354.30318721  .00000059  00000+0  34904-4 0  9999
2 66047  88.9978  61.3061 0016106  25.4207 334.7757 13.93750801  9041
QIANFAN-106             
1 66048U 25233R   25354.91693886  .00000053  00000+0  43727-4 0  9992
2 66048  88.9945  61.2835 0016867  25.1296 335.0685 13.73106627  9103
QIANFAN-107             
1 66049U 25233S   25354.91979587  .00000049  00000+0  41129-4 0  9997
2 66049  88.9956  61.2852 0015385  24.5178 335.6713 13.71054185  9108
QIANFAN-108             
1 66050U 25233T   25354.55053906  .00000055  00000+0  46263-4 0  9998
2 66050  88.9954  61.3353 0014388  32.6153 327.5896 13.72524579  9056
